NORAD_CAT_ID,OBJECT_NAME,OBJECT_TYPE,EPOCH,MEAN_MOTION,ECCENTRICITY,INCLINATION,RA_OF_ASC_NODE,ARG_OF_PERICENTER,MEAN_ANOMALY,BSTAR,MEAN_MOTION_DOT,MEAN_MOTION_DDOT,TLE_LINE0,TLE_LINE1,TLE_LINE2,SEMIMAJOR_AXIS,PERIOD,APOGEE,PERIGEE,DECAYED
50851.0,STARLINK-3314,PAYLOAD,2024-05-17 12:06:23,15.08829658,0.0003377,53.2148,267.212,130.7257,229.4028,-0.00021686,-3.738e-05,0.0,0 STARLINK-3314,1 50851U 22001BA  24138.50444391 -.00003738  00000-0 -21686-3 0  9991,2 50851  53.2148 267.2120 0003377 130.7257 229.4028 15.08829658131733,6917.912,95.438,542.113,537.441,0.0
50851.0,STARLINK-3314,PAYLOAD,2024-05-17 15:17:10,15.08826668,0.0001651,53.2183,266.619,104.9135,255.204,-5.881e-05,-1.224e-05,0.0,0 STARLINK-3314,1 50851U 22001BA  24138.63692947 -.00001224  00000-0 -58810-4 0  9995,2 50851  53.2183 266.6190 0001651 104.9135 255.2040 15.08826668130472,6917.921,95.438,540.928,538.644,0.0
50851.0,STARLINK-3314,PAYLOAD,2024-05-18 11:57:10,15.08906256,0.0002042,53.216,262.7539,101.7711,258.351,0.0039856,0.00063834,0.0,0 STARLINK-3314,1 50851U 22001BA  24139.49804300  .00063834  00000-0  39856-2 0  9998,2 50851  53.2160 262.7539 0002042 101.7711 258.3510 15.08906256131885,6917.678,95.433,540.955,538.13,0.0
50851.0,STARLINK-3314,PAYLOAD,2024-05-18 15:07:55,15.08944514,0.0001646,53.2157,262.1602,83.2489,276.8691,0.0039402,0.00063164,0.0,0 STARLINK-3314,1 50851U 22001BA  24139.63050418  .00063164  00000-0  39402-2 0  9990,2 50851  53.2157 262.1602 0001646  83.2489 276.8691 15.08944514130626,6917.561,95.431,540.565,538.287,0.0
50851.0,STARLINK-3314,PAYLOAD,2024-05-18 16:43:19,15.08869478,0.0002339,53.2157,261.8642,91.0278,269.0982,0.00072962,0.00011352,0.0,0 STARLINK-3314,1 50851U 22001BA  24139.69675444  .00011352  00000-0  72962-3 0  9999,2 50851  53.2157 261.8642 0002339  91.0278 269.0982 15.08869478131914,6917.79,95.436,541.273,538.037,0.0
50851.0,STARLINK-3314,PAYLOAD,2024-05-19 00:40:15,15.0884171,0.000216,53.2157,260.3772,66.3722,293.7497,-0.00094311,-0.00015268,0.0,0 STARLINK-3314,1 50851U 22001BA  24140.02795946 -.00015268  00000-0 -94311-3 0  9992,2 50851  53.2157 260.3772 0002160  66.3722 293.7497 15.08841710131962,6917.875,95.437,541.234,538.246,0.0
50851.0,STARLINK-3314,PAYLOAD,2024-05-19 13:23:21,15.08798275,0.0001214,53.2174,258.0008,77.2847,282.8281,0.0010849,0.00017001,0.0,0 STARLINK-3314,1 50851U 22001BA  24140.55789276  .00017001  00000-0  10849-2 0  9997,2 50851  53.2174 258.0008 0001214  77.2847 282.8281 15.08798275132042,6918.008,95.44,540.713,539.033,0.0
50851.0,STARLINK-3314,PAYLOAD,2024-05-19 18:09:31,15.08810857,0.000124,53.2175,257.1071,75.5521,284.5609,0.002244,0.00035577,0.0,0 STARLINK-3314,1 50851U 22001BA  24140.75661792  .00035577  00000-0  22440-2 0  9999,2 50851  53.2175 257.1071 0001240  75.5521 284.5609 15.08810857132079,6917.969,95.439,540.692,538.977,0.0
50851.0,STARLINK-3314,PAYLOAD,2024-05-20 13:14:08,15.0888366,0.0001212,53.2166,253.538,56.6135,303.4973,0.0025962,0.00041322,0.0,0 STARLINK-3314,1 50851U 22001BA  24141.55149104  .00041322  00000-0  25962-2 0  9993,2 50851  53.2166 253.5380 0001212  56.6135 303.4973 15.08883660132192,6917.747,95.435,540.45,538.774,0.0
50851.0,STARLINK-3314,PAYLOAD,2024-05-20 14:49:31,15.08890614,0.0001228,53.2164,253.2402,54.4921,305.6185,0.0026828,0.00042727,0.0,0 STARLINK-3314,1 50851U 22001BA  24141.61772883  .00042727  00000-0  26828-2 0  9998,2 50851  53.2164 253.2402 0001228  54.4921 305.6185 15.08890614130923,6917.726,95.434,540.44,538.741,0.0
50851.0,STARLINK-3314,PAYLOAD,2024-05-21 13:04:55,15.08859768,7.41e-05,53.2163,249.0767,106.78,253.3273,0.0018385,0.00029109,0.0,0 STARLINK-3314,1 50851U 22001BA  24142.54508693  .00029109  00000-0  18385-2 0  9995,2 50851  53.2163 249.0767 0000741 106.7800 253.3273 15.08859768132345,6917.82,95.436,540.198,539.172,0.0
50851.0,STARLINK-3314,PAYLOAD,2024-05-21 14:40:18,15.08858997,7.27e-05,53.216,248.7795,113.395,246.7118,0.001823,0.00028859,0.0,0 STARLINK-3314,1 50851U 22001BA  24142.61132657  .00028859  00000-0  18230-2 0  9996,2 50851  53.2160 248.7795 0000727 113.3950 246.7118 15.08858997131079,6917.822,95.436,540.19,539.184,0.0
50851.0,STARLINK-3314,PAYLOAD,2024-05-22 11:20:20,15.08842409,0.0001164,53.2159,244.9137,133.2423,226.8667,0.001474,0.0002325,0.0,0 STARLINK-3314,1 50851U 22001BA  24143.47245444  .00023250  00000-0  14740-2 0  9992,2 50851  53.2159 244.9137 0001164 133.2423 226.8667 15.08842409132482,6917.873,95.437,540.543,538.933,0.0
50851.0,STARLINK-3314,PAYLOAD,2024-05-23 12:46:30,15.08847619,0.0001165,53.2151,240.1598,70.545,289.5668,0.00052523,8.083e-05,0.0,0 STARLINK-3314,1 50851U 22001BA  24144.53229718  .00008083  00000-0  52523-3 0  9995,2 50851  53.2151 240.1598 0001165  70.5450 289.5668 15.08847619132640,6917.857,95.437,540.528,538.916,0.0
50851.0,STARLINK-3314,PAYLOAD,2024-05-24 12:37:16,15.08858868,0.000101,53.2131,235.6945,126.8992,233.2093,0.00044666,6.832e-05,0.0,0 STARLINK-3314,1 50851U 22001BA  24145.52588812  .00006832  00000-0  44666-3 0  9997,2 50851  53.2131 235.6945 0001010 126.8992 233.2093 15.08858868131519,6917.823,95.436,540.386,538.989,0.0
50851.0,STARLINK-3314,PAYLOAD,2024-05-24 15:48:02,15.08872745,9.51e-05,53.2146,235.1042,107.6887,252.4209,0.00068484,0.00010638,0.0,0 STARLINK-3314,1 50851U 22001BA  24145.65836213  .00010638  00000-0  68484-3 0  9995,2 50851  53.2146 235.1042 0000951 107.6887 252.4209 15.08872745132817,6917.78,95.435,540.303,538.987,0.0
50851.0,STARLINK-3314,PAYLOAD,2024-05-25 06:06:32,15.08831929,7.89e-05,53.2144,232.4293,117.3231,242.7842,-0.00012242,-2.235e-05,0.0,0 STARLINK-3314,1 50851U 22001BA  24146.25453712 -.00002235  00000-0 -12242-3 0  9998,2 50851  53.2144 232.4293 0000789 117.3231 242.7842 15.08831929132907,6917.905,95.438,540.316,539.224,0.0
50851.0,STARLINK-3314,PAYLOAD,2024-05-25 12:28:04,15.08839628,9.94e-05,53.216,231.2365,85.5801,274.5305,-3.8324e-05,-8.98e-06,0.0,0 STARLINK-3314,1 50851U 22001BA  24146.51949482 -.00000898  00000-0 -38324-4 0  9994,2 50851  53.2160 231.2365 0000994  85.5801 274.5305 15.08839628131662,6917.882,95.438,540.434,539.059,0.0
50851.0,STARLINK-3314,PAYLOAD,2024-05-25 15:38:50,15.08839921,9.75e-05,53.216,230.6415,87.5667,272.5437,-2.9851e-05,-7.63e-06,0.0,0 STARLINK-3314,1 50851U 22001BA  24146.65197454 -.00000763  00000-0 -29851-4 0  9999,2 50851  53.2160 230.6415 0000975  87.5667 272.5437 15.08839921132966,6917.881,95.438,540.42,539.071,0.0
50851.0,STARLINK-3314,PAYLOAD,2024-05-26 12:18:51,15.08836713,0.0001026,53.2159,226.7754,89.7465,270.3645,5.6298e-06,-1.98e-06,0.0,0 STARLINK-3314,1 50851U 22001BA  24147.51309908 -.00000198  00000-0  56298-5 0  9991,2 50851  53.2159 226.7754 0001026  89.7465 270.3645 15.08836713131810,6917.89,95.438,540.465,539.046,0.0
50851.0,STARLINK-3314,PAYLOAD,2024-05-26 21:51:10,15.08840353,0.0001023,53.2163,224.9934,78.9303,281.1804,-6.5691e-05,-1.333e-05,0.0,0 STARLINK-3314,1 50851U 22001BA  24147.91053674 -.00001333  00000-0 -65691-4 0  9990,2 50851  53.2163 224.9934 0001023  78.9303 281.1804 15.08840353131871,6917.879,95.438,540.452,539.037,0.0
50851.0,STARLINK-3314,PAYLOAD,2024-05-27 04:12:43,15.0883317,9.81e-05,53.2177,223.8039,97.2878,262.8226,0.00012894,1.765e-05,0.0,0 STARLINK-3314,1 50851U 22001BA  24148.17550246  .00001765  00000-0  12894-3 0  9999,2 50851  53.2177 223.8039 0000981  97.2878 262.8226 15.08833170133193,6917.901,95.438,540.445,539.088,0.0
50851.0,STARLINK-3314,PAYLOAD,2024-05-27 12:09:38,15.08837919,0.0001081,53.2171,222.316,86.7636,273.3479,0.00016272,2.303e-05,0.0,0 STARLINK-3314,1 50851U 22001BA  24148.50669959  .00002303  00000-0  16272-3 0  9991,2 50851  53.2171 222.3160 0001081  86.7636 273.3479 15.08837919131968,6917.887,95.438,540.5,539.004,0.0
50851.0,STARLINK-3314,PAYLOAD,2024-05-28 04:03:30,15.08840684,0.0001109,53.2172,219.3441,91.0132,269.0987,0.00019109,2.755e-05,0.0,0 STARLINK-3314,1 50851U 22001BA  24149.16909822  .00002755  00000-0  19109-3 0  9993,2 50851  53.2172 219.3441 0001109  91.0132 269.0987 15.08840684133341,6917.878,95.438,540.51,538.976,0.0
50851.0,STARLINK-3314,PAYLOAD,2024-05-28 12:00:25,15.08845877,0.0001034,53.2165,217.8571,79.9543,280.1566,0.00016216,2.294e-05,0.0,0 STARLINK-3314,1 50851U 22001BA  24149.50029569  .00002294  00000-0  16216-3 0  9996,2 50851  53.2165 217.8571 0001034  79.9543 280.1566 15.08845877132118,6917.862,95.437,540.443,539.012,0.0
50851.0,STARLINK-3314,PAYLOAD,2024-05-29 11:51:12,15.08841642,0.0001242,53.2169,213.3971,72.3438,287.769,5.1633e-05,5.34e-06,0.0,0 STARLINK-3314,1 50851U 22001BA  24150.49390023  .00000534  00000-0  51633-4 0  9990,2 50851  53.2169 213.3971 0001242  72.3438 287.7690 15.08841642133543,6917.875,95.437,540.6,538.881,0.0
50851.0,STARLINK-3314,PAYLOAD,2024-05-30 10:06:36,15.08846923,0.0001451,53.2168,209.2343,61.6861,298.4277,8.0027e-05,9.86e-06,0.0,0 STARLINK-3314,1 50851U 22001BA  24151.42125483  .00000986  00000-0  80027-4 0  9990,2 50851  53.2168 209.2343 0001451  61.6861 298.4277 15.08846923132403,6917.859,95.437,540.728,538.72,0.0
50851.0,STARLINK-3314,PAYLOAD,2024-05-31 03:35:50,15.08844192,0.0001383,53.2166,205.963,68.6405,291.4735,0.00010495,1.383e-05,0.0,0 STARLINK-3314,1 50851U 22001BA  24152.14989477  .00001383  00000-0  10495-3 0  9994,2 50851  53.2166 205.9630 0001383  68.6405 291.4735 15.08844192133799,6917.868,95.437,540.689,538.776,0.0
50851.0,STARLINK-3314,PAYLOAD,2024-05-31 09:57:23,15.08842921,0.000136,53.2164,204.7732,69.9552,290.1586,8.2523e-05,1.026e-05,0.0,0 STARLINK-3314,1 50851U 22001BA  24152.41485560  .00001026  00000-0  82523-4 0  9994,2 50851  53.2164 204.7732 0001360  69.9552 290.1586 15.08842921132550,6917.871,95.437,540.677,538.796,0.0
50851.0,STARLINK-3314,PAYLOAD,2024-06-01 12:58:56,15.08843782,0.0001177,53.2153,199.7173,92.4534,267.6592,5.261e-05,5.5e-06,0.0,0 STARLINK-3314,1 50851U 22001BA  24153.54093224  .00000550  00000-0  52610-4 0  9996,2 50851  53.2153 199.7173 0001177  92.4534 267.6592 15.08843782134001,6917.869,95.437,540.548,538.92,0.0
